{"type":"FeatureCollection","features":[{"type":"Feature","properties":{"name":"Rustaveli","osmRelation":12695438},"geometry":{"type":"Polygon","coordinates":[[[41.6157027,41.6452799],[41.6170332,41.644502],[41.6180748,41.6437314],[41.618283,41.6435774],[41.6192031,41.6428157],[41.6228232,41.6403152],[41.6228232,41.6403152],[41.6240848,41.6411324],[41.6345502,41.6443397],[41.6345502,41.6443397],[41.6341665,41.644942],[41.6356245,41.645392],[41.6313181,41.6507826],[41.6307541,41.6514885],[41.6305899,41.6516989],[41.6286303,41.6539509],[41.6286303,41.6539509],[41.6283318,41.6537938],[41.6277498,41.6534801],[41.6267403,41.6529013],[41.6267403,41.6529013],[41.6266715,41.6528619],[41.6265213,41.6527737],[41.6261351,41.6525392],[41.6256469,41.6522326],[41.624971,41.6518207],[41.6243997,41.651486],[41.6238794,41.6511603],[41.6233644,41.6508407],[41.6228105,41.6504729],[41.6221842,41.650052],[41.6216572,41.6496993],[41.6215713,41.6496432],[41.6215029,41.6496001],[41.6208217,41.6491181],[41.6204166,41.6488325],[41.6198628,41.6484306],[41.6193411,41.6480668],[41.6186745,41.6475648],[41.6180791,41.6471238],[41.6176499,41.6468132],[41.6175558,41.6467441],[41.6173717,41.6466088],[41.6172664,41.6465306],[41.6166696,41.6460575],[41.6161358,41.6456376],[41.6157027,41.6452799]]]}},{"type":"Feature","properties":{"name":"Old Batumi","osmRelation":12695439},"geometry":{"type":"Polygon","coordinates":[[[41.6458414,41.647482],[41.6425401,41.646808],[41.6345502,41.6443397],[41.6345502,41.6443397],[41.6341665,41.644942],[41.6356245,41.645392],[41.6313181,41.6507826],[41.6307541,41.6514885],[41.6305899,41.6516989],[41.6286303,41.6539509],[41.6286303,41.6539509],[41.6289957,41.6541475],[41.6296689,41.6544922],[41.6301571,41.6547236],[41.6306841,41.6549671],[41.6312246,41.6552287],[41.6319247,41.6555563],[41.6325375,41.6558649],[41.6330968,41.6561816],[41.633294,41.6562943],[41.633323,41.6563102],[41.6333519,41.6563261],[41.6335501,41.6564381],[41.6341227,41.6567557],[41.6345653,41.6569802],[41.634918,41.6571335],[41.6352318,41.6572627],[41.6355725,41.6573649],[41.6359989,41.6574751],[41.6363731,41.6575563],[41.6367312,41.6575944],[41.6371295,41.6575914],[41.6375707,41.6575693],[41.6379583,41.6575493],[41.6383016,41.6575493],[41.6387039,41.6575823],[41.6390365,41.6576224],[41.6394201,41.6576835],[41.639742,41.6577086],[41.6400813,41.6577166],[41.6404018,41.6577176],[41.6406257,41.6576866],[41.6408497,41.6576254],[41.6410549,41.6575423],[41.6413003,41.657415],[41.6414841,41.6572978],[41.6416302,41.6572086],[41.6418502,41.6570894],[41.6419668,41.6570162],[41.6420768,41.6569301],[41.642168,41.6568429],[41.6422337,41.6567697],[41.6422833,41.6566866],[41.642345,41.6565944],[41.6424443,41.6564842],[41.6426361,41.6563108],[41.6427594,41.6562086],[41.6428627,41.6561275],[41.6429405,41.6560794],[41.6430538,41.6560308],[41.6432087,41.6559782],[41.6434265,41.6559063],[41.6434881,41.6558537],[41.6435789,41.6557838],[41.6437237,41.6556495],[41.6438712,41.6555423],[41.6440281,41.6554361],[41.644181,41.6553479],[41.6442789,41.6552617],[41.6443259,41.6551745],[41.6443419,41.6550733],[41.6443084,41.6549932],[41.6442347,41.654915],[41.6441435,41.6548439],[41.6440107,41.6547537],[41.6439369,41.6547046],[41.6438672,41.6546505],[41.6438162,41.6546254],[41.6437612,41.6546164],[41.6436752,41.6546087],[41.643605,41.6546194],[41.6436318,41.654678],[41.6437224,41.6548679],[41.6438793,41.6552076],[41.6432637,41.6553549],[41.6430619,41.6548456],[41.6427501,41.6540588],[41.6427521,41.6540443],[41.6428466,41.653917],[41.6434434,41.6530873],[41.6436875,41.6532005],[41.6439014,41.6532958],[41.6439356,41.6533147],[41.6441689,41.6530291],[41.6442722,41.6530091],[41.6444963,41.6529685],[41.6439379,41.6513339],[41.6442874,41.6512655],[41.6443494,41.6512214],[41.6453331,41.6494217],[41.6450726,41.6493354],[41.6453448,41.6488954],[41.6452564,41.6488613],[41.6451556,41.6483288],[41.6452221,41.6483019],[41.645243,41.6482634],[41.6452356,41.6482266],[41.6452116,41.6481924],[41.6452041,41.6481723],[41.6453173,41.6479198],[41.6453244,41.6478828],[41.6453314,41.6478463],[41.6458414,41.647482]]]}}]}
